[
    {
        "Altitude(m)": 622200.1506831164,
        "Argument of Periapsis(deg)": 0.0,
        "Eccentricity": 0.0,
        "Inclination(deg)": 60.0,
        "Latitude(deg)": -52.16265823824393,
        "Longitude(deg)": -72.63921580477411,
        "Mean Anomaly(deg)": -65.45449999999997,
        "RAAN(deg)": 75.0,
        "Satellite Name": "Test1 348",
        "Satellite Number": 348,
        "Semi-Major Axis(m)": 6980739.136638005,
        "Time(s)": 0
    },
    {
        "Altitude(m)": 622058.3184447888,
        "Argument of Periapsis(deg)": 0.00010418945913296404,
        "Eccentricity": 0.0,
        "Inclination(deg)": 60.0,
        "Latitude(deg)": -51.799407558491914,
        "Longitude(deg)": -71.87115630007052,
        "Mean Anomaly(deg)": -64.83439385453813,
        "RAAN(deg)": 74.99957995086027,
        "Satellite Name": "Test1 348",
        "Satellite Number": 348,
        "Semi-Major Axis(m)": 6980739.136638005,
        "Time(s)": 10
    }
]